NORAD_CAT_ID,OBJECT_NAME,OBJECT_TYPE,EPOCH,MEAN_MOTION,ECCENTRICITY,INCLINATION,RA_OF_ASC_NODE,ARG_OF_PERICENTER,MEAN_ANOMALY,BSTAR,MEAN_MOTION_DOT,MEAN_MOTION_DDOT,TLE_LINE0,TLE_LINE1,TLE_LINE2,SEMIMAJOR_AXIS,PERIOD,APOGEE,PERIGEE,DECAYED
53551.0,STARLINK-4514,PAYLOAD,2023-02-09 18:51:34,15.08835024,0.0001341,53.2179,69.5197,94.2823,265.8323,-8.855e-05,-1.697e-05,0.0,0 STARLINK-4514,1 53551U 22101AA  23040.78581388 -.00001697  00000-0 -88550-4 0  9997,2 53551  53.2179  69.5197 0001341  94.2823 265.8323 15.08835024 26634,6917.896,95.438,540.688,538.833,0.0
53551.0,STARLINK-4514,PAYLOAD,2023-02-10 02:48:30,15.08830914,0.0001359,53.2207,68.0333,101.8133,258.3012,-8.225e-05,-1.596e-05,0.0,0 STARLINK-4514,1 53551U 22101AA  23041.11701958 -.00001596  00000-0 -82250-4 0  9991,2 53551  53.2207  68.0333 0001359 101.8133 258.3012 15.08830914 27344,6917.908,95.438,540.713,538.833,0.0
53551.0,STARLINK-4514,PAYLOAD,2023-02-10 09:10:02,15.08840953,0.0001224,53.2186,66.8417,91.9235,268.1897,3.4538e-05,2.62e-06,0.0,0 STARLINK-4514,1 53551U 22101AA  23041.38196979  .00000262  00000-0  34538-4 0  9994,2 53551  53.2186  66.8417 0001224  91.9235 268.1897 15.08840953 26727,6917.877,95.437,540.589,538.896,0.0
53551.0,STARLINK-4514,PAYLOAD,2023-02-11 05:50:03,15.08827956,0.0001378,53.2193,62.9769,107.9204,252.1938,0.00011664,1.568e-05,0.0,0 STARLINK-4514,1 53551U 22101AA  23042.24309677  .00001568  00000-0  11664-3 0  9995,2 53551  53.2193  62.9769 0001378 107.9204 252.1938 15.08827956 27511,6917.917,95.438,540.735,538.829,0.0
53551.0,STARLINK-4514,PAYLOAD,2023-02-11 18:33:08,15.08836659,0.0001303,53.2201,60.5972,90.247,269.8672,3.5449e-05,2.76e-06,0.0,0 STARLINK-4514,1 53551U 22101AA  23042.77301494  .00000276  00000-0  35449-4 0  9995,2 53551  53.2201  60.5972 0001303  90.2470 269.8672 15.08836659 26933,6917.891,95.438,540.657,538.854,0.0
53551.0,STARLINK-4514,PAYLOAD,2023-02-11 20:08:31,15.08834682,0.0001399,53.2184,60.3012,91.4807,268.6345,4.5312e-05,4.33e-06,0.0,0 STARLINK-4514,1 53551U 22101AA  23042.83925573  .00000433  00000-0  45312-4 0  9997,2 53551  53.2184  60.3012 0001399  91.4807 268.6345 15.08834682 27601,6917.897,95.438,540.729,538.794,0.0
53551.0,STARLINK-4514,PAYLOAD,2023-02-12 02:30:04,15.08824541,9.82e-05,53.2189,59.1082,109.5069,250.6029,0.0001298,1.778e-05,0.0,0 STARLINK-4514,1 53551U 22101AA  23043.10421884  .00001778  00000-0  12980-3 0  9991,2 53551  53.2189  59.1082 0000982 109.5069 250.6029 15.08824541 26980,6917.928,95.439,540.472,539.113,0.0
53551.0,STARLINK-4514,PAYLOAD,2023-02-12 07:16:13,15.08835077,0.0001269,53.2191,58.2159,109.4263,250.6866,6.3396e-05,7.21e-06,0.0,0 STARLINK-4514,1 53551U 22101AA  23043.30293539  .00000721  00000-0  63396-4 0  9992,2 53551  53.2191  58.2159 0001269 109.4263 250.6866 15.08835077 27012,6917.895,95.438,540.638,538.883,0.0
53551.0,STARLINK-4514,PAYLOAD,2023-02-12 23:10:05,15.08842271,0.0001305,53.2188,55.2443,105.645,254.4686,-0.00013007,-2.357e-05,0.0,0 STARLINK-4514,1 53551U 22101AA  23043.96534095 -.00002357  00000-0 -13007-3 0  9991,2 53551  53.2188  55.2443 0001305 105.6450 254.4686 15.08842271 27777,6917.873,95.437,540.641,538.836,0.0
53551.0,STARLINK-4514,PAYLOAD,2023-02-14 00:36:14,15.08843425,0.0001337,53.2179,50.4853,94.2793,265.8352,0.0001253,1.707e-05,0.0,0 STARLINK-4514,1 53551U 22101AA  23045.02517006  .00001707  00000-0  12530-3 0  9999,2 53551  53.2179  50.4853 0001337  94.2793 265.8352 15.08843425 27270,6917.87,95.437,540.66,538.81,0.0
53551.0,STARLINK-4514,PAYLOAD,2023-02-14 06:57:46,15.08851527,0.0001407,53.2189,49.3007,85.5699,274.5454,0.0002142,3.124e-05,0.0,0 STARLINK-4514,1 53551U 22101AA  23045.29012119  .00003124  00000-0  21420-3 0  9996,2 53551  53.2189  49.3007 0001407  85.5699 274.5454 15.08851527 27312,6917.845,95.437,540.683,538.737,0.0
53551.0,STARLINK-4514,PAYLOAD,2023-02-15 03:37:48,15.08830587,0.0001239,53.2191,45.4321,78.478,281.6352,2.4661e-05,1.05e-06,0.0,0 STARLINK-4514,1 53551U 22101AA  23046.15125958  .00000105  00000-0  24661-4 0  9995,2 53551  53.2191  45.4321 0001239  78.4780 281.6352 15.08830587 27449,6917.909,95.438,540.631,538.917,0.0
53551.0,STARLINK-4514,PAYLOAD,2023-02-15 09:59:20,15.08843252,0.0001286,53.2189,44.2414,113.319,246.7938,3.9744e-05,3.45e-06,0.0,0 STARLINK-4514,1 53551U 22101AA  23046.41620997  .00000345  00000-0  39744-4 0  9991,2 53551  53.2189  44.2414 0001286 113.3190 246.7938 15.08843252 27481,6917.87,95.437,540.625,538.846,0.0
53551.0,STARLINK-4514,PAYLOAD,2023-02-15 16:20:53,15.0883855,0.0001224,53.2183,43.051,106.702,253.4106,1.4649e-05,-5.5e-07,0.0,0 STARLINK-4514,1 53551U 22101AA  23046.68117359 -.00000055  00000-0  14649-4 0  9999,2 53551  53.2183  43.0510 0001224 106.7020 253.4106 15.08838550 28184,6917.885,95.438,540.597,538.903,0.0
53551.0,STARLINK-4514,PAYLOAD,2023-02-16 06:39:21,15.08851602,0.0001335,53.2184,40.3791,101.3641,258.7501,-2.9259e-05,-7.54e-06,0.0,0 STARLINK-4514,1 53551U 22101AA  23047.27732720 -.00000754  00000-0 -29259-4 0  9990,2 53551  53.2184  40.3791 0001335 101.3641 258.7501 15.08851602 28279,6917.845,95.437,540.633,538.786,0.0
53551.0,STARLINK-4514,PAYLOAD,2023-02-16 16:11:40,15.08835931,0.0001177,53.22,38.5919,68.5152,291.5965,1.8877e-05,1.3e-07,0.0,0 STARLINK-4514,1 53551U 22101AA  23047.67477481  .00000013  00000-0  18877-4 0  9994,2 53551  53.2200  38.5919 0001177  68.5152 291.5965 15.08835931 27673,6917.893,95.438,540.572,538.944,0.0
53551.0,STARLINK-4514,PAYLOAD,2023-02-17 03:19:24,15.08819326,0.0001066,53.2183,36.5096,108.8021,251.3087,-0.00011531,-2.121e-05,0.0,0 STARLINK-4514,1 53551U 22101AA  23048.13847310 -.00002121  00000-0 -11531-3 0  9991,2 53551  53.2183  36.5096 0001066 108.8021 251.3087 15.08819326 27744,6917.944,95.439,540.546,539.071,0.0
53551.0,STARLINK-4514,PAYLOAD,2023-02-17 09:40:56,15.0882257,0.000148,53.2209,35.3208,74.1364,285.9791,-6.094e-05,-1.257e-05,0.0,0 STARLINK-4514,1 53551U 22101AA  23048.40343465 -.00001257  00000-0 -60940-4 0  9991,2 53551  53.2209  35.3208 0001480  74.1364 285.9791 15.08822570 28448,6917.934,95.439,540.823,538.775,0.0
53551.0,STARLINK-4514,PAYLOAD,2023-02-17 16:02:29,15.08828797,0.0001344,53.2203,34.1318,86.0256,274.089,-0.00011613,-2.135e-05,0.0,0 STARLINK-4514,1 53551U 22101AA  23048.66839402 -.00002135  00000-0 -11613-3 0  9998,2 53551  53.2203  34.1318 0001344  86.0256 274.0890 15.08828797 27829,6917.915,95.438,540.709,538.85,0.0
53551.0,STARLINK-4514,PAYLOAD,2023-02-18 07:56:19,15.08843386,0.0001089,53.2191,31.1574,92.1975,267.9141,1.9113e-05,1.6e-07,0.0,0 STARLINK-4514,1 53551U 22101AA  23049.33078312  .00000016  00000-0  19113-4 0  9996,2 53551  53.2191  31.1574 0001089  92.1975 267.9141 15.08843386 27920,6917.87,95.437,540.488,538.982,0.0
53551.0,STARLINK-4514,PAYLOAD,2023-02-18 22:14:48,15.08821685,0.0001201,53.2204,28.4812,72.7465,287.3658,0.00019849,2.871e-05,0.0,0 STARLINK-4514,1 53551U 22101AA  23049.92695247  .00002871  00000-0  19849-3 0  9999,2 53551  53.2204  28.4812 0001201  72.7465 287.3658 15.08821685 28011,6917.936,95.439,540.632,538.971,0.0
53551.0,STARLINK-4514,PAYLOAD,2023-02-19 07:47:06,15.08842965,0.0001111,53.2187,26.6971,77.4754,282.6363,0.00021995,3.215e-05,0.0,0 STARLINK-4514,1 53551U 22101AA  23050.32437921  .00003215  00000-0  21995-3 0  9996,2 53551  53.2187  26.6971 0001111  77.4754 282.6363 15.08842965 28071,6917.871,95.437,540.505,538.968,0.0
53551.0,STARLINK-4514,PAYLOAD,2023-02-19 15:44:02,15.08835956,0.0001503,53.22,25.2103,89.1534,270.9631,8.4744e-05,1.061e-05,0.0,0 STARLINK-4514,1 53551U 22101AA  23050.65558917  .00001061  00000-0  84744-4 0  9990,2 53551  53.2200  25.2103 0001503  89.1534 270.9631 15.08835956 28126,6917.893,95.438,540.798,538.718,0.0
53551.0,STARLINK-4514,PAYLOAD,2023-02-20 04:27:08,15.08836163,0.0001127,53.2216,22.8328,91.7577,268.3545,6.4919e-05,7.45e-06,0.0,0 STARLINK-4514,1 53551U 22101AA  23051.18550969  .00000745  00000-0  64919-4 0  9998,2 53551  53.2216  22.8328 0001127  91.7577 268.3545 15.08836163 28860,6917.892,95.438,540.537,538.977,0.0
53551.0,STARLINK-4514,PAYLOAD,2023-02-20 15:34:49,15.08850062,0.0001226,53.2196,20.7518,91.8347,268.2785,-1.4881e-06,-3.12e-06,0.0,0 STARLINK-4514,1 53551U 22101AA  23051.64918096 -.00000312  00000-0 -14881-5 0  9994,2 53551  53.2196  20.7518 0001226  91.8347 268.2785 15.08850062 28275,6917.85,95.437,540.563,538.867,0.0
53551.0,STARLINK-4514,PAYLOAD,2023-02-21 07:28:39,15.08858268,0.000131,53.2203,17.7789,87.8393,272.2749,2.839e-05,1.64e-06,0.0,0 STARLINK-4514,1 53551U 22101AA  23052.31157048  .00000164  00000-0  28390-4 0  9993,2 53551  53.2203  17.7789 0001310  87.8393 272.2749 15.08858268 28372,6917.825,95.436,540.596,538.783,0.0
53551.0,STARLINK-4514,PAYLOAD,2023-02-22 04:08:41,15.08834368,0.0001321,53.2193,13.9138,85.2346,274.8797,-3.4023e-05,-8.29e-06,0.0,0 STARLINK-4514,1 53551U 22101AA  23053.17270736 -.00000829  00000-0 -34023-4 0  9998,2 53551  53.2193  13.9138 0001321  85.2346 274.8797 15.08834368 28509,6917.898,95.438,540.676,538.849,0.0
53551.0,STARLINK-4514,PAYLOAD,2023-02-22 07:19:28,15.08837951,0.0001437,53.2187,13.3185,86.2675,273.8482,-4.1985e-05,-9.56e-06,0.0,0 STARLINK-4514,1 53551U 22101AA  23053.30518542 -.00000956  00000-0 -41985-4 0  9999,2 53551  53.2187  13.3185 0001437  86.2675 273.8482 15.08837951 29188,6917.887,95.438,540.746,538.758,0.0
53551.0,STARLINK-4514,PAYLOAD,2023-02-23 03:59:26,15.08863925,0.0001169,53.2206,9.4502,87.3059,272.8067,9.9149e-05,1.291e-05,0.0,0 STARLINK-4514,1 53551U 22101AA  23054.16628147  .00001291  00000-0  99149-4 0  9993,2 53551  53.2206   9.4502 0001169  87.3059 272.8067 15.08863925 28658,6917.807,95.436,540.481,538.864,0.0
53551.0,STARLINK-4514,PAYLOAD,2023-02-23 05:34:49,15.08866243,0.0001022,53.2197,9.1541,86.0385,274.0724,6.5922e-05,7.62e-06,0.0,0 STARLINK-4514,1 53551U 22101AA  23054.23252002  .00000762  00000-0  65922-4 0  9998,2 53551  53.2197   9.1541 0001022  86.0385 274.0724 15.08866243 29328,6917.8,95.436,540.372,538.958,0.0
